STARLINK-4667           
1 53707U 22107H   22272.91667824  .00039464  00000+0  28460-3 0  9990
2 53707  53.2132 150.2618 0001605 128.4812 193.2598 15.73173060  1305
STARLINK-4694           
1 53708U 22107J   22273.25002315  .00016346  00000+0  12046-3 0  9994
2 53708  53.2126 148.6156 0001166 129.4227 279.5342 15.73237719  4085
STARLINK-4685           
1 53709U 22107K   22273.25002315  .00047136  00000+0  33825-3 0  9994
2 53709  53.2129 148.6270 0001385 138.8065 264.7734 15.73208944  4082
STARLINK-4696           
1 53710U 22107L   22273.25002315  .00206172  27491-4  54383-3 0  9993
2 53710  53.2100 146.0722 0007460 350.9802 215.7736 15.94331683  4115
STARLINK-4627           
1 53711U 22107M   22272.91667824  .00042160  00000+0  30377-3 0  9992
2 53711  53.2135 150.2779 0001204 143.4671 170.5366 15.73163974  1300
STARLINK-4683           
1 53712U 22107N   22273.25002315  .00046174  00000+0  33133-3 0  9991
2 53712  53.2130 148.6260 0001347 143.1188 260.9576 15.73219150  4083
STARLINK-4698           
1 53713U 22107P   22272.91667824  .00040645  00000+0  29294-3 0  9996
2 53713  53.2133 150.2803 0001632 130.0505 182.7970 15.73173376  1304
STARLINK-4688           
1 53714U 22107Q   22272.91667824  .00041013  00000+0  29551-3 0  9993
2 53714  53.2135 150.2792 0001441 123.9413 189.4740 15.73176239  1301
STARLINK-4686           
1 53715U 22107R   22273.25002315  .00046077  00000+0  33073-3 0  9999
2 53715  53.2130 148.6339 0001461 127.9193 272.0923 15.73213014  4067
STARLINK-4699           
1 53716U 22107S   22272.91667824  .00040593  00000+0  29267-3 0  9991
2 53716  53.2135 150.2829 0001593 124.7204 186.9499 15.73165502  1303
STARLINK-4702           
1 53717U 22107T   22273.07947785  .00236799  33383-4  55721-3 0  9991
2 53717  53.2099 146.8332 0006821 339.4585  20.6170 15.96411302  4073
STARLINK-4695           
1 53718U 22107U   22272.91667824  .00041449  00000+0  29868-3 0  9991
2 53718  53.2133 150.2814 0001440 126.9715 185.2683 15.73168853  1308
STARLINK-4644           
1 53719U 22107V   22273.25002315 -.01224509  44555-3 -34469-2 0  9990
2 53719  53.2157 146.2583 0007435 278.2995 200.8398 15.92827075  4099
STARLINK-4642           
1 53720U 22107W   22272.91667824  .00041843  00000+0  30147-3 0  9994
2 53720  53.2135 150.2852 0001564 127.6184 182.8180 15.73168199  1308
STARLINK-4707           
1 53721U 22107X   22272.91667824  .00040110  00000+0  28925-3 0  9992
2 53721  53.2136 150.2917 0001607 133.7749 173.6564 15.73166055  1308
STARLINK-4700           
1 53722U 22107Y   22273.25002315 -.00038410  00000+0 -26987-3 0  9997
2 53722  53.2131 148.6395 0001400 134.0237 263.5948 15.73253889  4065
STARLINK-4705           
1 53723U 22107Z   22272.91667824  .00040604  00000+0  29264-3 0  9999
2 53723  53.2135 150.2937 0001721 127.9554 178.3704 15.73174449  1301
STARLINK-4663           
1 53724U 22107AA  22272.91667824  .00040106  00000+0  28927-3 0  9992
2 53724  53.2133 150.2899 0001613 130.1074 177.9500 15.73162261  1308
STARLINK-4704           
1 53725U 22107AB  22273.08078045  .00224736  31102-4  53535-3 0  9991
2 53725  53.2094 146.8417 0006851 341.1281  18.9494 15.96200658  4076
STARLINK-4697           
1 53726U 22107AC  22273.25002315  .00046684  00000+0  33492-3 0  9990
2 53726  53.2130 148.6430 0001132 123.2106 272.5707 15.73219302  4060
STARLINK-4701           
1 53727U 22107AD  22272.91667824  .00038922  00000+0  28096-3 0  9995
2 53727  53.2136 150.2975 0001526 115.1141 189.3506 15.73157348  1303
STARLINK-4640           
1 53728U 22107AE  22272.91667824  .00042373  00000+0  30509-3 0  9993
2 53728  53.2136 150.2963 0001593 132.1235 172.9446 15.73177866  1306
STARLINK-4651           
1 53729U 22107AF  22272.91667824  .00040374  00000+0  29103-3 0  9991
2 53729  53.2135 150.3009 0001731 128.0779 174.6698 15.73172997  1307
STARLINK-4641           
1 53730U 22107AG  22272.91667824  .00043145  00000+0  31012-3 0  9994
2 53730  53.2135 150.2986 0001532 128.3610 175.5494 15.73209308  1309
STARLINK-4636           
1 53731U 22107AH  22272.91667824  .00041012  00000+0  29563-3 0  9994
2 53731  53.2137 150.3038 0001576 125.8212 175.6624 15.73165784  1304
STARLINK-4661           
1 53732U 22107AJ  22272.91667824  .00040234  00000+0  28996-3 0  9999
2 53732  53.2137 150.3002 0001507 129.9836 173.2874 15.73179914  1308
STARLINK-4574           
1 53733U 22107AK  22273.25002315 -.00013505  00000+0 -91780-4 0  9991
2 53733  53.2130 148.6563 0001227 118.0914 271.1934 15.73246006  4067
STARLINK-4616           
1 53734U 22107AL  22272.91667824  .00039113  00000+0  28227-3 0  9992
2 53734  53.2136 150.3026 0001401 127.6838 174.3882 15.73160803  1303
STARLINK-4618           
1 53735U 22107AM  22272.91667824 -.01205488  00000+0 -15303-1 0  9995
2 53735  53.2167 150.4996 0001784 141.3005  63.4360 15.61625340  1306
STARLINK-4652           
1 53736U 22107AN  22272.91667824  .00041745  00000+0  30088-3 0  9996
2 53736  53.2137 150.3051 0001503 127.0711 173.8351 15.73160070  1302
STARLINK-4646           
1 53737U 22107AP  22272.91667824 -.01237707  00000+0 -15757-1 0  9999
2 53737  53.2167 150.5017 0001685 142.6821  61.1063 15.61629503  1303
STARLINK-4662           
1 53738U 22107AQ  22272.91667824 -.01224049  00000+0 -15545-1 0  9990
2 53738  53.2168 150.4976 0001588 127.9630  77.7005 15.61660662  1304
STARLINK-4613           
1 53739U 22107AR  22273.01337940  .00295844  46358-4  67096-3 0  9995
2 53739  53.2094 147.1285 0006942 336.9130  23.1587 15.97029369  3983
STARLINK-4607           
1 53740U 22107AS  22273.25002315 -.01193898  00000+0 -15684-1 0  9990
2 53740  53.2172 148.8828 0001878 149.2443 128.1227 15.60717023  4066
STARLINK-4614           
1 53741U 22107AT  22273.25002315  .00010597  00000+0  11340-3 0  9999
2 53741  53.2132 148.8658 0001472 112.8973 173.5689 15.64520770  4069
STARLINK-4637           
1 53742U 22107AU  22273.25002315 -.01217726  00000+0 -16037-1 0  9992
2 53742  53.2164 148.8852 0001405 133.3074 143.0893 15.60714057  4065
STARLINK-4645           
1 53743U 22107AV  22272.91667824 -.01218316  00000+0 -15567-1 0  9990
2 53743  53.2167 150.5132 0001710 140.4242  57.7481 15.61489525  1303
STARLINK-4670           
1 53744U 22107AW  22273.25002315 -.01232158  00000+0 -16256-1 0  9993
2 53744  53.2165 148.8872 0001277 127.8773 147.5524 15.60703925  4063
STARLINK-4656           
1 53745U 22107AX  22272.91667824 -.01229178  00000+0 -15729-1 0  9990
2 53745  53.2167 150.5153 0001663 139.2939  57.9335 15.61477940  1302
STARLINK-4589           
1 53746U 22107AY  22273.25002315 -.01193895  00000+0 -15735-1 0  9990
2 53746  53.2172 148.8909 0001829 147.5323 125.9853 15.60633690  4063
STARLINK-4657           
1 53747U 22107AZ  22272.90487452  .00615178  19312-3  87547-3 0  9993
2 53747  53.2100 147.1356 0006817 296.4617  63.5710 16.04977314  4056
STARLINK-4669           
1 53748U 22107BA  22272.91667824 -.01221400  00000+0 -15634-1 0  9998
2 53748  53.2167 150.5170 0001798 141.7775  54.5134 15.61450734  1301
STARLINK-4680           
1 53749U 22107BB  22272.91667824 -.01267495  00000+0 -16284-1 0  9995
2 53749  53.2170 150.5196 0001605 123.2913  72.0373 15.61467965  1304
STARLINK-4612           
1 53750U 22107BC  22272.91667824 -.01275193  00000+0 -16404-1 0  9995
2 53750  53.2167 150.5209 0001652 128.0789  66.3058 15.61452988  1308
FALCON 9 DEB            
1 53751U 22107BD  22272.86710548  .00468235  10657-3  86597-3 0  9995
2 53751  53.2094 147.6274 0006539 315.3961  44.6545 16.00584541  3957
FALCON 9 DEB            
1 53752U 22107BE  22273.07683433  .00322991  53809-4  69505-3 0  9997
2 53752  53.2064 146.8093 0007794 347.6495  12.4343 15.97946081  3998
FALCON 9 DEB            
1 53753U 22107BF  22272.87349981  .00428541  90200-4  80291-3 0  9991
2 53753  53.2060 147.6664 0008201 316.2500  43.7881 16.00342068  3951
SHERPA-LTC2             
1 53754U 22107BG  22272.72959936  .00147355  19332-4  41939-3 0  9997
2 53754  53.2116 148.9335 0009014 346.3527  13.7257 15.92997924  3927
FALCON 9 DEB            
1 53755U 22107BH  22272.72902539  .00395238  79290-4  68776-3 0  9997
2 53755  53.2034 148.1722 0006037 302.3990  57.6458 16.01654715  3937
FALCON 9 DEB            
1 53756U 22107BJ  22272.72439594  .00490865  11929-3  81857-3 0  9995
2 53756  53.2057 148.1454 0007272 297.7306  62.2988 16.02341503  3934
CENTISPACE-1 S3         
1 53757U 22108A   22273.20629513 -.00001152  00000+0 -20790-3 0  9995
2 53757  53.5322 247.4456 0009401 348.3034  11.7813 14.58213753  3519
CENTISPACE-1 S4         
1 53758U 22108B   22273.14635340  .00000277  00000+0  10019-3 0  9992
2 53758  53.5290 247.7677 0009161 334.2577  25.7934 14.57723953  3506
KZ-1A R/B               
1 53759U 22108C   22273.18784750  .00524387  10101-4  72195-3 0  9991
2 53759  53.5559 234.1667 0330734 151.4727 210.4839 15.49491678  3700
YAOGAN-35 05A           
1 53760U 22109A   22273.20884174 -.00007607  00000+0 -31297-3 0  9991
2 53760  34.9972 234.3764 0006612 125.4692 195.3395 15.23152389  3669
YAOGAN-35 05B           
1 53761U 22109B   22273.13388981  .00011508  00000+0  47513-3 0  9990
2 53761  34.9957 234.7944 0006173 149.5806 139.1782 15.23224135  3613
CZ-2D DEB               
1 53762U 22109C   22273.20725440  .00021361  00000+0  84939-3 0  9995
2 53762  34.9944 234.2109 0007877 136.2657 241.0107 15.24376275  3637
YAOGAN-35 05C           
1 53763U 22109D   22273.17121741  .00008305  00000+0  34252-3 0  9992
2 53763  34.9964 234.6026 0005406 137.1607 341.1101 15.23319629  3627
CZ-2D R/B               
1 53764U 22109E   22273.20827177  .00038385  00000+0  15098-2 0  9990
2 53764  34.9960 234.2194 0007906 131.0613 245.9295 15.24637424  3636
EUTELSAT KONNECT VHTS   
1 53765U 22110A   22272.41236258 -.00000165  00000+0  00000+0 0  9999
2 53765   2.7912 141.8550 7740781 181.6206 346.1466  1.07653154   250
